NORAD_CAT_ID,OBJECT_NAME,OBJECT_TYPE,EPOCH,MEAN_MOTION,ECCENTRICITY,INCLINATION,RA_OF_ASC_NODE,ARG_OF_PERICENTER,MEAN_ANOMALY,BSTAR,MEAN_MOTION_DOT,MEAN_MOTION_DDOT,TLE_LINE0,TLE_LINE1,TLE_LINE2,SEMIMAJOR_AXIS,PERIOD,APOGEE,PERIGEE,DECAYED
53634.0,STARLINK-4592,PAYLOAD,2022-11-30 14:00:01,15.0883113,0.0001351999999999,53.2153,189.057,65.4957,25.2359,0.0018228,0.00028834,0.0,0 STARLINK-4592,1 53634U 22104AY  22334.58335648  .00028834  00000-0  18228-2 0  9994,2 53634  53.2153 189.0570 0001352  65.4957  25.2359 15.08831130 14785,6917.908,95.438,540.7080000000002,538.837,0.0
53634.0,STARLINK-4592,PAYLOAD,2022-11-30 22:00:00,15.08817935,0.0001404,53.2164,187.5638,60.2116,42.0598,0.0045133,0.00072234,0.0,0 STARLINK-4592,1 53634U 22104AY  22334.91667824  .00072234  00000-0  45133-2 0  9993,2 53634  53.2164 187.5638 0001404  60.2116  42.0598 15.08817935  1306,6917.948,95.439,540.784,538.842,0.0
53634.0,STARLINK-4592,PAYLOAD,2022-12-01 06:00:00,15.08859245,0.0001439,53.2152,186.0654,58.5674,55.285,-0.0019516,-0.0003123,0.0,0 STARLINK-4592,1 53634U 22104AY  22335.25001157 -.00031230  00000-0 -19516-2 0  9991,2 53634  53.2152 186.0654 0001439  58.5674  55.2850 15.08859245 14886,6917.821999999999,95.436,540.682,538.691,0.0
53634.0,STARLINK-4592,PAYLOAD,2022-12-01 14:00:01,15.08848017,0.0001404,53.215,184.5679,67.367,58.0944,0.0013087,0.00020606,0.0,0 STARLINK-4592,1 53634U 22104AY  22335.58334491  .00020606  00000-0  13087-2 0  9997,2 53634  53.2150 184.5679 0001404  67.3670  58.0944 15.08848017  1303,6917.856,95.437,540.692,538.75,0.0
53634.0,STARLINK-4592,PAYLOAD,2022-12-01 22:00:00,15.08855847,0.0001468,53.2148,183.0733,57.8901,79.1844,-0.0027142,-0.00043244,0.0,0 STARLINK-4592,1 53634U 22104AY  22335.91667824 -.00043244  00000-0 -27142-2 0  9995,2 53634  53.2148 183.0733 0001468  57.8901  79.1844 15.08855847 14986,6917.831999999999,95.437,540.712,538.681,0.0
53634.0,STARLINK-4592,PAYLOAD,2022-12-02 14:00:01,15.088304199999998,0.0001339,53.2146,180.0789,66.3638,93.885,0.00067041,0.00010395,0.0,0 STARLINK-4592,1 53634U 22104AY  22336.58334491  .00010395  00000-0  67041-3 0  9992,2 53634  53.2146 180.0789 0001339  66.3638  93.8850 15.08830420 15083,6917.91,95.438,540.701,538.8480000000002,0.0
53634.0,STARLINK-4592,PAYLOAD,2022-12-02 22:00:00,15.0882264,0.0001475,53.2144,178.5843,56.6951,115.1454,0.0008862999999999,0.00013839,0.0,0 STARLINK-4592,1 53634U 22104AY  22336.91667824  .00013839  00000-0  88630-3 0  9991,2 53634  53.2144 178.5843 0001475  56.6951 115.1454 15.08822640  1308,6917.933000000001,95.439,540.819,538.778,0.0
53634.0,STARLINK-4592,PAYLOAD,2022-12-03 14:00:01,15.08841665,0.0001414,53.2142,175.5898,65.7786,129.2296,0.00032306,4.858e-05,0.0,0 STARLINK-4592,1 53634U 22104AY  22337.58334491  .00004858  00000-0  32306-3 0  9996,2 53634  53.2142 175.5898 0001414  65.7786 129.2296 15.08841665  1301,6917.875,95.437,540.7180000000002,538.762,0.0
53634.0,STARLINK-4592,PAYLOAD,2022-12-03 22:00:00,15.08827078,0.0001561999999999,53.2141,174.095,56.2043,150.4076,0.0014252,0.00022459,0.0,0 STARLINK-4592,1 53634U 22104AY  22337.91667824  .00022459  00000-0  14252-2 0  9998,2 53634  53.2141 174.0950 0001562  56.2043 150.4076 15.08827078  1302,6917.92,95.438,540.865,538.7040000000002,0.0
53634.0,STARLINK-4592,PAYLOAD,2022-12-04 14:00:01,15.08852915,0.0001491,53.214,171.1004,64.7631,165.0353,-3.2576e-06,-3.4e-06,0.0,0 STARLINK-4592,1 53634U 22104AY  22338.58334491 -.00000340  00000-0 -32576-5 0  9992,2 53634  53.2140 171.1004 0001491  64.7631 165.0353 15.08852915  1305,6917.840999999999,95.437,540.737,538.674,0.0
53634.0,STARLINK-4592,PAYLOAD,2022-12-04 22:00:00,15.08835068,0.0001669,53.214,169.6055,56.1546,185.2599,0.0017036999999999,0.00026927,0.0,0 STARLINK-4592,1 53634U 22104AY  22338.91667824  .00026927  00000-0  17037-2 0  9997,2 53634  53.2140 169.6055 0001669  56.1546 185.2599 15.08835068  1306,6917.895,95.438,540.915,538.606,0.0
53634.0,STARLINK-4592,PAYLOAD,2022-12-05 14:00:01,15.08839458,0.0001667,53.2141,166.6108,65.7188,198.9545,-0.00027011,-4.584e-05,0.0,0 STARLINK-4592,1 53634U 22104AY  22339.58335648 -.00004584  00000-0 -27011-3 0  9998,2 53634  53.2141 166.6108 0001667  65.7188 198.9545 15.08839458 15538,6917.882,95.438,540.9,538.594,0.0
53634.0,STARLINK-4592,PAYLOAD,2022-12-05 19:11:28,15.08840517,0.0001525,53.2161,165.6408,57.0489,303.065,-1.0116e-05,-4.49e-06,0.0,0 STARLINK-4592,1 53634U 22104AY  22339.79963752 -.00000449  00000-0 -10116-4 0  9999,2 53634  53.2161 165.6408 0001525  57.0489 303.0650 15.08840517 16594,6917.879,95.438,540.799,538.689,0.0
53634.0,STARLINK-4592,PAYLOAD,2022-12-06 12:40:43,15.08838162,0.0001555,53.2158,162.3697,57.6076,302.5066,-4.292e-05,-9.71e-06,0.0,0 STARLINK-4592,1 53634U 22104AY  22340.52827969 -.00000971  00000-0 -42920-4 0  9999,2 53634  53.2158 162.3697 0001555  57.6076 302.5066 15.08838162 16706,6917.886,95.438,540.827,538.675,0.0
53634.0,STARLINK-4592,PAYLOAD,2022-12-06 19:02:15,15.08840462,0.0001559,53.2159,161.18,59.2919,300.8227,-2.967e-05,-7.6e-06,0.0,0 STARLINK-4592,1 53634U 22104AY  22340.79323752 -.00000760  00000-0 -29670-4 0  9992,2 53634  53.2159 161.1800 0001559  59.2919 300.8227 15.08840462 16748,6917.879,95.438,540.822,538.665,0.0
53634.0,STARLINK-4592,PAYLOAD,2022-12-07 12:31:31,15.08821721,0.0001355,53.216,157.9085,30.0914,330.0156,-8.0779e-05,-1.573e-05,0.0,0 STARLINK-4592,1 53634U 22104AY  22341.52188929 -.00001573  00000-0 -80779-4 0  9999,2 53634  53.2160 157.9085 0001355  30.0914 330.0156 15.08821721 15836,6917.936,95.439,540.739,538.864,0.0
53634.0,STARLINK-4592,PAYLOAD,2022-12-07 18:53:04,15.08816543,0.0001414,53.216,156.719,50.4248,309.6869,-0.00012323,-2.247e-05,0.0,0 STARLINK-4592,1 53634U 22104AY  22341.78685664 -.00002247  00000-0 -12323-3 0  9993,2 53634  53.2160 156.7190 0001414  50.4248 309.6869 15.08816543 16898,6917.9519999999975,95.439,540.795,538.839,0.0
53634.0,STARLINK-4592,PAYLOAD,2022-12-08 12:22:19,15.08821779,0.00016,53.2158,153.4476,62.4731,297.6423,-0.00010578,-1.97e-05,0.0,0 STARLINK-4592,1 53634U 22104AY  22342.51550165 -.00001970  00000-0 -10578-3 0  9994,2 53634  53.2158 153.4476 0001600  62.4731 297.6423 15.08821779 17006,6917.936,95.439,540.908,538.694,0.0
53634.0,STARLINK-4592,PAYLOAD,2022-12-08 18:43:51,15.08824368,0.0001595999999999,53.2162,152.2588,63.8839,296.2318,-7.6507e-05,-1.505e-05,0.0,0 STARLINK-4592,1 53634U 22104AY  22342.78046124 -.00001505  00000-0 -76507-4 0  9997,2 53634  53.2162 152.2588 0001596  63.8839 296.2318 15.08824368 16026,6917.928000000001,95.439,540.8969999999998,538.689,0.0
53634.0,STARLINK-4592,PAYLOAD,2022-12-09 04:16:08,15.08851478,6.36e-05,53.2171,150.4772,293.9936,66.0989,0.00014673,2.049e-05,0.0,0 STARLINK-4592,1 53634U 22104AY  22343.17787471  .00002049  00000-0  14673-3 0  9995,2 53634  53.2171 150.4772 0000636 293.9936  66.0989 15.08851478 17108,6917.845,95.437,540.15,539.27,0.0
53634.0,STARLINK-4592,PAYLOAD,2022-12-09 20:09:56,15.08896573,0.0001481,53.2174,147.5049,255.4148,104.668,0.00044648,6.836e-05,0.0,0 STARLINK-4592,1 53634U 22104AY  22343.84023869  .00006836  00000-0  44648-3 0  9996,2 53634  53.2174 147.5049 0001481 255.4148 104.6680 15.08896573 16181,6917.706999999999,95.434,540.597,538.548,0.0
53634.0,STARLINK-4592,PAYLOAD,2022-12-10 02:31:36,15.08799316,7.04e-05,53.2174,146.3159,74.4248,285.6822,-7.9064e-05,-1.544e-05,0.0,0 STARLINK-4592,1 53634U 22104AY  22344.10528507 -.00001544  00000-0 -79064-4 0  9999,2 53634  53.2174 146.3159 0000704  74.4248 285.6822 15.08799316 16227,6918.005,95.44,540.357,539.383,0.0
53634.0,STARLINK-4592,PAYLOAD,2022-12-10 12:03:48,15.08922024,9.35e-05,53.2183,144.5304,316.6629,43.4289,-6.1864e-05,-1.275e-05,0.0,0 STARLINK-4592,1 53634U 22104AY  22344.50264794 -.00001275  00000-0 -61864-4 0  9998,2 53634  53.2183 144.5304 0000935 316.6629  43.4289 15.08922024 17300,6917.63,95.432,540.141,538.8480000000002,0.0
53634.0,STARLINK-4592,PAYLOAD,2022-12-10 18:25:26,15.0882803,8.809999999999999e-05,53.2177,143.3388,64.3046,295.8037,3.6938e-05,3e-06,0.0,0 STARLINK-4592,1 53634U 22104AY  22344.76766788  .00000300  00000-0  36938-4 0  9996,2 53634  53.2177 143.3388 0000881  64.3046 295.8037 15.08828030 16329,6917.917,95.438,540.391,539.173,0.0
53634.0,STARLINK-4592,PAYLOAD,2022-12-11 10:19:16,15.08842405,4.99e-05,53.2174,140.3625,341.6366,18.4608,0.00012446,1.694e-05,0.0,0 STARLINK-4592,1 53634U 22104AY  22345.43005230  .00001694  00000-0  12446-3 0  9993,2 53634  53.2174 140.3625 0000499 341.6366  18.4608 15.08842405 16424,6917.873000000001,95.437,540.0830000000002,539.393,0.0
53634.0,STARLINK-4592,PAYLOAD,2022-12-11 19:51:34,15.0886939,0.0001306,53.2174,138.5802,73.1774,286.9361,-2.3127e-05,-6.56e-06,0.0,0 STARLINK-4592,1 53634U 22104AY  22345.82748458 -.00000656  00000-0 -23127-4 0  9990,2 53634  53.2174 138.5802 0001306  73.1774 286.9361 15.08869390 16484,6917.791,95.436,540.559,538.752,0.0
53634.0,STARLINK-4592,PAYLOAD,2022-12-12 21:17:45,15.0884503,0.0001484,53.216,133.8206,64.2743,295.8402,-5.8748e-05,-1.223e-05,0.0,0 STARLINK-4592,1 53634U 22104AY  22346.88733156 -.00001223  00000-0 -58748-4 0  9994,2 53634  53.2160 133.8206 0001484  64.2743 295.8402 15.08845030 16647,6917.865,95.437,540.757,538.703,0.0
53634.0,STARLINK-4592,PAYLOAD,2022-12-13 16:22:22,15.08850915,0.0001692,53.2161,130.2522,58.6675,301.4482,-0.00010875,-2.019e-05,0.0,0 STARLINK-4592,1 53634U 22104AY  22347.68220509 -.00002019  00000-0 -10875-3 0  9998,2 53634  53.2161 130.2522 0001692  58.6675 301.4482 15.08850915 17788,6917.847,95.437,540.883,538.5419999999998,0.0
53634.0,STARLINK-4592,PAYLOAD,2022-12-14 09:51:36,15.08839917,0.0001527,53.2167,126.9824,52.9336,307.1796,6.2142e-06,-1.89e-06,0.0,0 STARLINK-4592,1 53634U 22104AY  22348.41084271 -.00000189  00000-0  62142-5 0  9995,2 53634  53.2167 126.9824 0001527  52.9336 307.1796 15.08839917 16878,6917.880999999999,95.438,540.802,538.689,0.0
